ONEWEB-0685             
1 54679U 22166AP  25266.11131533  .00000080  00000+0  16258-3 0  9999
2 54679  87.9192 297.2887 0002001  86.2169 273.9194 13.21828247136134
ONEWEB-0712             
1 54680U 22166AQ  25266.00668479 -.00000253  00000+0 -69617-3 0  9994
2 54680  87.8978 282.0111 0001365  80.9317 279.1968 13.16593727136905
ONEWEB-0714             
1 54681U 22166AR  25266.11762568  .00000023  00000+0  23911-4 0  9992
2 54681  87.9191 297.2808 0001856  87.8822 272.2525 13.21823344136255
ONEWEB-0532             
1 55140U 23004A   25265.66209313  .00000077  00000+0  16531-3 0  9996
2 55140  87.9066  59.0649 0002128  92.9713 267.1662 13.17648138132356
ONEWEB-0533             
1 55141U 23004B   25265.63626833 -.00000301  00000+0 -87297-3 0  9993
2 55141  87.8921  43.8153 0001624  89.9163 270.2151 13.12443660132965
ONEWEB-0541             
1 55142U 23004C   25265.83840688  .00000545  00000+0  15006-2 0  9998
2 55142  87.8790  74.3031 0001734  94.5621 265.5705 13.11420143130901
ONEWEB-0543             
1 55143U 23004D   25265.77503525  .00000042  00000+0  75038-4 0  9993
2 55143  87.9190  28.6095 0001427  97.0169 263.1125 13.18685603134458
ONEWEB-0544             
1 55144U 23004E   25265.76842543 -.00000020  00000+0 -83623-4 0  9996
2 55144  87.9189  28.6008 0001549 104.3599 255.7706 13.18684016134454
ONEWEB-0560             
1 55145U 23004F   25265.83770620  .00000002  00000+0 -27754-4 0  9993
2 55145  87.9198  28.5663 0001574 107.6770 252.4534 13.18684380134475
ONEWEB-0565             
1 55146U 23004G   25265.75523405  .00000019  00000+0  16668-4 0  9991
2 55146  87.9190  28.6363 0002066 112.5283 247.6068 13.18686489134455
ONEWEB-0567             
1 55147U 23004H   25265.90038995 -.00000034  00000+0 -11870-3 0  9992
2 55147  87.9196  28.5681 0001820 111.9046 248.2280 13.18686143134473
ONEWEB-0569             
1 55148U 23004J   25266.23417777  .00000047  00000+0  94694-4 0  9997
2 55148  87.9050  13.2395 0001655 134.8136 225.3128 13.13471380135137
ONEWEB-0570             
1 55149U 23004K   25266.26987541  .00000117  00000+0  26400-3 0  9999
2 55149  87.9198  28.4952 0002307 101.4876 258.6515 13.18685647134512
ONEWEB-0571             
1 55150U 23004L   25265.88390523  .00000408  00000+0  10011-2 0  9999
2 55150  87.9193  28.5763 0002418 131.5265 228.6075 13.18684624134476
ONEWEB-0572             
1 55151U 23004M   25265.92028290 -.00000031  00000+0 -11416-3 0  9999
2 55151  87.9068  59.0228 0001805 100.0107 260.1229 13.17649868132287
ONEWEB-0573             
1 55152U 23004N   25265.80141275  .00000008  00000+0 -12232-4 0  9997
2 55152  87.9189  28.5990 0002368 115.0572 245.0807 13.18684636134454
ONEWEB-0588             
1 55153U 23004P   25265.79482009 -.00000034  00000+0 -11925-3 0  9996
2 55153  87.9198  28.5877 0002175 102.9302 257.2074 13.18685497134458
