[{"OBJECT_NAME":"ONEWEB-0685","OBJECT_ID":"2022-166AP","EPOCH":"2025-09-23T02:40:17.644512","MEAN_MOTION":13.21828247,"ECCENTRICITY":0.00020019,"INCLINATION":87.9192,"RA_OF_ASC_NODE":297.2887,"ARG_OF_PERICENTER":86.2169,"MEAN_ANOMALY":273.9194,"EPHEMERIS_TYPE":0,"CLASSIFICATION_TYPE":"U","NORAD_CAT_ID":54679,"ELEMENT_SET_NO":999,"REV_AT_EPOCH":13613,"BSTAR":0.00016258063,"MEAN_MOTION_DOT":8.0e-7,"MEAN_MOTION_DDOT":0},{"OBJECT_NAME":"ONEWEB-0712","OBJECT_ID":"2022-166AQ","EPOCH":"2025-09-23T00:09:37.565856","MEAN_MOTION":13.16593727,"ECCENTRICITY":0.00013655,"INCLINATION":87.8978,"RA_OF_ASC_NODE":282.0111,"ARG_OF_PERICENTER":80.9317,"MEAN_ANOMALY":279.1968,"EPHEMERIS_TYPE":0,"CLASSIFICATION_TYPE":"U","NORAD_CAT_ID":54680,"ELEMENT_SET_NO":999,"REV_AT_EPOCH":13690,"BSTAR":-0.00069617098,"MEAN_MOTION_DOT":-2.53e-6,"MEAN_MOTION_DDOT":0},{"OBJECT_NAME":"ONEWEB-0714","OBJECT_ID":"2022-166AR","EPOCH":"2025-09-23T02:49:22.858752","MEAN_MOTION":13.21823344,"ECCENTRICITY":0.00018564,"INCLINATION":87.9191,"RA_OF_ASC_NODE":297.2808,"ARG_OF_PERICENTER":87.8822,"MEAN_ANOMALY":272.2525,"EPHEMERIS_TYPE":0,"CLASSIFICATION_TYPE":"U","NORAD_CAT_ID":54681,"ELEMENT_SET_NO":999,"REV_AT_EPOCH":13625,"BSTAR":2.3911174e-5,"MEAN_MOTION_DOT":2.3e-7,"MEAN_MOTION_DDOT":0},{"OBJECT_NAME":"ONEWEB-0532","OBJECT_ID":"2023-004A","EPOCH":"2025-09-22T15:53:24.846432","MEAN_MOTION":13.17648138,"ECCENTRICITY":0.0002128,"INCLINATION":87.9066,"RA_OF_ASC_NODE":59.0649,"ARG_OF_PERICENTER":92.9713,"MEAN_ANOMALY":267.1662,"EPHEMERIS_TYPE":0,"CLASSIFICATION_TYPE":"U","NORAD_CAT_ID":55140,"ELEMENT_SET_NO":999,"REV_AT_EPOCH":13235,"BSTAR":0.00016530601,"MEAN_MOTION_DOT":7.7e-7,"MEAN_MOTION_DDOT":0},{"OBJECT_NAME":"ONEWEB-0533","OBJECT_ID":"2023-004B","EPOCH":"2025-09-22T15:16:13.583712","MEAN_MOTION":13.1244366,"ECCENTRICITY":0.0001624,"INCLINATION":87.8921,"RA_OF_ASC_NODE":43.8153,"ARG_OF_PERICENTER":89.9163,"MEAN_ANOMALY":270.2151,"EPHEMERIS_TYPE":0,"CLASSIFICATION_TYPE":"U","NORAD_CAT_ID":55141,"ELEMENT_SET_NO":999,"REV_AT_EPOCH":13296,"BSTAR":-0.00087296505,"MEAN_MOTION_DOT":-3.01e-6,"MEAN_MOTION_DDOT":0},{"OBJECT_NAME":"ONEWEB-0541","OBJECT_ID":"2023-004C","EPOCH":"2025-09-22T20:07:18.354432","MEAN_MOTION":13.11420143,"ECCENTRICITY":0.00017347,"INCLINATION":87.879,"RA_OF_ASC_NODE":74.3031,"ARG_OF_PERICENTER":94.5621,"MEAN_ANOMALY":265.5705,"EPHEMERIS_TYPE":0,"CLASSIFICATION_TYPE":"U","NORAD_CAT_ID":55142,"ELEMENT_SET_NO":999,"REV_AT_EPOCH":13090,"BSTAR":0.0015005535,"MEAN_MOTION_DOT":5.45e-6,"MEAN_MOTION_DDOT":0},{"OBJECT_NAME":"ONEWEB-0543","OBJECT_ID":"2023-004D","EPOCH":"2025-09-22T18:36:03.045600","MEAN_MOTION":13.18685603,"ECCENTRICITY":0.00014271,"INCLINATION":87.919,"RA_OF_ASC_NODE":28.6095,"ARG_OF_PERICENTER":97.0169,"MEAN_ANOMALY":263.1125,"EPHEMERIS_TYPE":0,"CLASSIFICATION_TYPE":"U","NORAD_CAT_ID":55143,"ELEMENT_SET_NO":999,"REV_AT_EPOCH":13445,"BSTAR":7.5037933e-5,"MEAN_MOTION_DOT":4.2e-7,"MEAN_MOTION_DDOT":0},{"OBJECT_NAME":"ONEWEB-0544","OBJECT_ID":"2023-004E","EPOCH":"2025-09-22T18:26:31.957152","MEAN_MOTION":13.18684016,"ECCENTRICITY":0.00015493,"INCLINATION":87.9189,"RA_OF_ASC_NODE":28.6008,"ARG_OF_PERICENTER":104.3599,"MEAN_ANOMALY":255.7706,"EPHEMERIS_TYPE":0,"CLASSIFICATION_TYPE":"U","NORAD_CAT_ID":55144,"ELEMENT_SET_NO":999,"REV_AT_EPOCH":13445,"BSTAR":-8.3623242e-5,"MEAN_MOTION_DOT":-2.0e-7,"MEAN_MOTION_DDOT":0},{"OBJECT_NAME":"ONEWEB-0560","OBJECT_ID":"2023-004F","EPOCH":"2025-09-22T20:06:17.815680","MEAN_MOTION":13.1868438,"ECCENTRICITY":0.0001574,"INCLINATION":87.9198,"RA_OF_ASC_NODE":28.5663,"ARG_OF_PERICENTER":107.677,"MEAN_ANOMALY":252.4534,"EPHEMERIS_TYPE":0,"CLASSIFICATION_TYPE":"U","NORAD_CAT_ID":55145,"ELEMENT_SET_NO":999,"REV_AT_EPOCH":13447,"BSTAR":-2.7754049e-5,"MEAN_MOTION_DOT":2.0e-8,"MEAN_MOTION_DDOT":0},{"OBJECT_NAME":"ONEWEB-0565","OBJECT_ID":"2023-004G","EPOCH":"2025-09-22T18:07:32.221920","MEAN_MOTION":13.18686489,"ECCENTRICITY":0.00020663,"INCLINATION":87.919,"RA_OF_ASC_NODE":28.6363,"ARG_OF_PERICENTER":112.5283,"MEAN_ANOMALY":247.6068,"EPHEMERIS_TYPE":0,"CLASSIFICATION_TYPE":"U","NORAD_CAT_ID":55146,"ELEMENT_SET_NO":999,"REV_AT_EPOCH":13445,"BSTAR":1.6667821e-5,"MEAN_MOTION_DOT":1.9e-7,"MEAN_MOTION_DDOT":0},{"OBJECT_NAME":"ONEWEB-0567","OBJECT_ID":"2023-004H","EPOCH":"2025-09-22T21:36:33.691680","MEAN_MOTION":13.18686143,"ECCENTRICITY":0.00018203,"INCLINATION":87.9196,"RA_OF_ASC_NODE":28.5681,"ARG_OF_PERICENTER":111.9046,"MEAN_ANOMALY":248.228,"EPHEMERIS_TYPE":0,"CLASSIFICATION_TYPE":"U","NORAD_CAT_ID":55147,"ELEMENT_SET_NO":999,"REV_AT_EPOCH":13447,"BSTAR":-0.00011869791,"MEAN_MOTION_DOT":-3.4e-7,"MEAN_MOTION_DDOT":0},{"OBJECT_NAME":"ONEWEB-0569","OBJECT_ID":"2023-004J","EPOCH":"2025-09-23T05:37:12.959328","MEAN_MOTION":13.1347138,"ECCENTRICITY":0.00016555,"INCLINATION":87.905,"RA_OF_ASC_NODE":13.2395,"ARG_OF_PERICENTER":134.8136,"MEAN_ANOMALY":225.3128,"EPHEMERIS_TYPE":0,"CLASSIFICATION_TYPE":"U","NORAD_CAT_ID":55148,"ELEMENT_SET_NO":999,"REV_AT_EPOCH":13513,"BSTAR":9.4693751e-5,"MEAN_MOTION_DOT":4.7e-7,"MEAN_MOTION_DDOT":0},{"OBJECT_NAME":"ONEWEB-0570","OBJECT_ID":"2023-004K","EPOCH":"2025-09-23T06:28:37.235424","MEAN_MOTION":13.18685647,"ECCENTRICITY":0.00023076,"INCLINATION":87.9198,"RA_OF_ASC_NODE":28.4952,"ARG_OF_PERICENTER":101.4876,"MEAN_ANOMALY":258.6515,"EPHEMERIS_TYPE":0,"CLASSIFICATION_TYPE":"U","NORAD_CAT_ID":55149,"ELEMENT_SET_NO":999,"REV_AT_EPOCH":13451,"BSTAR":0.00026399549,"MEAN_MOTION_DOT":1.17e-6,"MEAN_MOTION_DDOT":0},{"OBJECT_NAME":"ONEWEB-0571","OBJECT_ID":"2023-004L","EPOCH":"2025-09-22T21:12:49.411872","MEAN_MOTION":13.18684624,"ECCENTRICITY":0.0002418,"INCLINATION":87.9193,"RA_OF_ASC_NODE":28.5763,"ARG_OF_PERICENTER":131.5265,"MEAN_ANOMALY":228.6075,"EPHEMERIS_TYPE":0,"CLASSIFICATION_TYPE":"U","NORAD_CAT_ID":55150,"ELEMENT_SET_NO":999,"REV_AT_EPOCH":13447,"BSTAR":0.0010011252,"MEAN_MOTION_DOT":4.08e-6,"MEAN_MOTION_DDOT":0},{"OBJECT_NAME":"ONEWEB-0572","OBJECT_ID":"2023-004M","EPOCH":"2025-09-22T22:05:12.442560","MEAN_MOTION":13.17649868,"ECCENTRICITY":0.00018051,"INCLINATION":87.9068,"RA_OF_ASC_NODE":59.0228,"ARG_OF_PERICENTER":100.0107,"MEAN_ANOMALY":260.1229,"EPHEMERIS_TYPE":0,"CLASSIFICATION_TYPE":"U","NORAD_CAT_ID":55151,"ELEMENT_SET_NO":999,"REV_AT_EPOCH":13228,"BSTAR":-0.00011415947,"MEAN_MOTION_DOT":-3.1e-7,"MEAN_MOTION_DDOT":0},{"OBJECT_NAME":"ONEWEB-0573","OBJECT_ID":"2023-004N","EPOCH":"2025-09-22T19:14:02.061600","MEAN_MOTION":13.18684636,"ECCENTRICITY":0.00023685,"INCLINATION":87.9189,"RA_OF_ASC_NODE":28.599,"ARG_OF_PERICENTER":115.0572,"MEAN_ANOMALY":245.0807,"EPHEMERIS_TYPE":0,"CLASSIFICATION_TYPE":"U","NORAD_CAT_ID":55152,"ELEMENT_SET_NO":999,"REV_AT_EPOCH":13445,"BSTAR":-1.2232324e-5,"MEAN_MOTION_DOT":8.0e-8,"MEAN_MOTION_DDOT":0},{"OBJECT_NAME":"ONEWEB-0588","OBJECT_ID":"2023-004P","EPOCH":"2025-09-22T19:04:32.455776","MEAN_MOTION":13.18685497,"ECCENTRICITY":0.00021755,"INCLINATION":87.9198,"RA_OF_ASC_NODE":28.5877,"ARG_OF_PERICENTER":102.9302,"MEAN_ANOMALY":257.2074,"EPHEMERIS_TYPE":0,"CLASSIFICATION_TYPE":"U","NORAD_CAT_ID":55153,"ELEMENT_SET_NO":999,"REV_AT_EPOCH":13445,"BSTAR":-0.00011925391,"MEAN_MOTION_DOT":-3.4e-7,"MEAN_MOTION_DDOT":0}]
